satname,norad_id,inclination_deg,eccentricity,mean_motion_rev_per_day,perigee_km,apogee_km,l1,l2
STARLINK-1572,46060,53.1613,0.0001085,15.30185957,474.5134063577689,476.00059285568386,1 46060U 20055AK  26166.89739015  .00002477  00000+0  95766-4 0  9997,2 46060  53.1613  17.9493 0001085  96.2008 263.9117 15.30185957324078
STARLINK-1573,46061,53.1608,7.71e-05,15.31689613,470.24290770352854,471.29900931073007,1 46061U 20055AL  26166.86763685  .00000310  00000+0  21762-4 0  9994,2 46061  53.1608  17.1588 0000771  96.8685 263.2404 15.31689613324114
STARLINK-1577,46063,53.1609,0.0001138,15.31690316,469.9894573906313,471.5482683650225,1 46063U 20055AN  26166.83036013  .00002438  00000+0  90312-4 0  9991,2 46063  53.1609  17.3266 0001138  89.9179 270.1953 15.31690316324108
STARLINK-1583,46064,53.1604,0.0001231,15.31685069,469.9414018841044,471.62760635841914,1 46064U 20055AP  26166.90965852  .00007618  00000+0  25711-3 0  9997,2 46064  53.1604  17.4581 0001231  91.6880 268.4262 15.31685069324100
STARLINK-1536,46070,53.1578,8.39e-05,15.31698429,470.1700571260926,471.3192994717101,1 46070U 20055AV  26166.84569063  .00001738  00000+0  67741-4 0  9998,2 46070  53.1578   5.1425 0000839  85.9122 274.1975 15.31698429324273
STARLINK-1542,46073,53.1602,0.0001229,15.31703691,469.88726693831995,471.57071819929297,1 46073U 20055AY  26166.87006205  .00003752  00000+0  13261-3 0  9993,2 46073  53.1602   7.9975 0001229  82.0107 278.1034 15.31703691324222
STARLINK-1549,46074,53.0492,0.0002405,15.29994612,474.18001089159134,477.4767682439742,1 46074U 20055AZ  26166.84020510  .00039858  00000+0  13591-2 0  9997,2 46074  53.0492   5.3188 0002405 156.9298 203.1810 15.29994612324240
STARLINK-1551,46075,53.1602,9.84e-05,15.3170101,470.06305526978576,471.41091366992896,1 46075U 20055BA  26166.83670219  .00001519  00000+0  60701-4 0  9994,2 46075  53.1602   5.1203 0000984  75.6320 284.4791 15.31701010324267
STARLINK-1552,46076,53.1609,0.0001015,15.31699731,470.0456360043627,471.435958197173,1 46076U 20055BB  26166.82266070  .00002364  00000+0  87930-4 0  9992,2 46076  53.1609   4.7739 0001015  78.7335 281.3780 15.31699731324259
STARLINK-1559,46077,53.0254,3.32e-05,15.39115285,448.49756011322006,448.9508636976907,1 46077U 20055BC  26166.78323265  .00050639  00000+0  12886-2 0  9992,2 46077  53.0254 333.9321 0000332  10.1572 349.9438 15.39115285324642
STARLINK-1566,46079,53.1597,0.0001001,15.31697001,470.06336162107436,471.43450858528195,1 46079U 20055BE  26166.82730197  .00000928  00000+0  41679-4 0  9995,2 46079  53.1597   4.5995 0001001  76.4419 283.6694 15.31697001324272
STARLINK-1568,46080,53.0597,0.0002891,15.54978685,400.25439050748264,404.17478979690986,1 46080U 20055BF  26166.59297547  .00042278  00000+0  62360-3 0  9991,2 46080  53.0597 282.8607 0002891  62.8995 297.2310 15.54978685325384
STARLINK-1578,46082,53.1602,0.0001082,15.31696391,470.00970383304684,471.4918031429006,1 46082U 20055BH  26166.83169574  .00002655  00000+0  97310-4 0  9997,2 46082  53.1602   5.0964 0001082  82.2363 277.8761 15.31696391324267
STARLINK-1579,46083,53.1602,0.0001192,15.31704051,469.91153473366376,471.544304130457,1 46083U 20055BJ  26166.81798690  .00003588  00000+0  12733-3 0  9994,2 46083  53.1602   4.6978 0001192  85.8407 274.2731 15.31704051324269
STARLINK-1622,46128,53.0136,0.0005263,15.88232889,303.7186398590129,310.75566469169826,1 46128U 20057M   26166.91668981  .00192003  00000+0  67117-3 0  9993,2 46128  53.0136  95.0852 0005263 111.2597 308.2751 15.88232889  6008
STARLINK-1623,46129,53.0382,0.0005466,15.76876197,335.62578952446074,342.9692889627622,1 46129U 20057N   26166.91668981  .00044634  00000+0  27326-3 0  9998,2 46129  53.0382 133.9490 0005466  64.5906 240.6153 15.76876197  5974
STARLINK-1596,46141,53.0344,0.0006634,15.61046295,380.1471278898671,389.11997185543805,1 46141U 20057AA  26166.13409574  .00060740  00000+0  70896-3 0  9993,2 46141  53.0344 121.1705 0006634  60.9693 299.1984 15.61046295322419
STARLINK-1597,46142,53.0373,0.0005161,15.7645364,337.03037134701935,343.9653462482702,1 46142U 20057AB  26166.91668981  .00068558  00000+0  42429-3 0  9995,2 46142  53.0373 173.7122 0005161  51.3073  17.6185 15.76453640  5997
STARLINK-1606,46144,53.0303,0.0004614,16.01365958,267.56735301544177,273.7028399060555,1 46144U 20057AD  26166.95798846  .00490944  11775-3  86843-3 0  9996,2 46144  53.0303 125.0925 0004614 204.2044 155.8770 16.01365958310674
STARLINK-1608,46146,53.1574,0.0005634,15.36756836,451.85699330574516,459.5573689290286,1 46146U 20057AF  26166.85335660  .00041631  00000+0  11464-2 0  9994,2 46146  53.1574 211.6673 0005634   4.5670 355.5384 15.36756836321238
STARLINK-1667,46155,53.0093,0.0004294,15.9623113,282.02507303119364,287.7472773340405,1 46155U 20057AQ  26166.91668981  .00316009  50998-4  74931-3 0  9995,2 46155  53.0093  93.8572 0004294 130.7879 149.3662 15.96231130  6010
STARLINK-1545,46156,53.0358,0.0002008,15.89994903,300.9557054257275,303.63856777498586,1 46156U 20057AR  26166.91668981  .00277353  00000+0  87859-3 0  9991,2 46156  53.0358 130.5158 0002008 168.5044 288.4083 15.89994903  6005
STARLINK-1595,46159,53.0395,0.0005971,15.74200165,342.8926439742627,350.923692914419,1 46159U 20057AU  26166.91668981  .00124606  00000+0  84136-3 0  9991,2 46159  53.0395 176.5983 0005971  47.0165 137.4707 15.74200165  5821
STARLINK-1598,46160,53.0416,0.000149,15.73615161,347.57251129122415,349.577071405045,1 46160U 20057AV  26166.28861500  .00082468  00000+0  57583-3 0  9990,2 46160  53.0416 165.9010 0001490 353.2787   6.8211 15.73615161323045
STARLINK-1626,46167,53.0378,0.0001656,15.77108103,337.5267144938489,339.7513107092236,1 46167U 20057BC  26166.32541649  .00098861  00000+0  59094-3 0  9994,2 46167  53.0378 174.9879 0001656  74.5858 285.5345 15.77108103321676
STARLINK-1633,46171,53.0343,0.0002181,15.86050991,311.9076189022817,314.8264529627568,1 46171U 20057BG  26166.91668981  .00174215  00000+0  67998-3 0  9993,2 46171  53.0343 132.5931 0002181 155.3081 154.9796 15.86050991  5941
STARLINK-1635,46172,53.032,0.0002503,15.93753378,290.1207485435252,293.4597141155291,1 46172U 20057BH  26166.91668981  .00317996  50181-4  86214-3 0  9991,2 46172  53.0320 130.0731 0002503 171.8717 244.3152 15.93753378  6055
STARLINK-1640,46173,53.0387,0.0006014,15.74216842,342.816258729179,350.9050859294575,1 46173U 20057BJ  26166.92019417  .00101050  00000+0  68450-3 0  9991,2 46173  53.0387 177.6103 0006014  41.3929 318.7544 15.74216842321685
